{"epoch":1784885835,"count":18312,"objects":[{"id":"63486","name":"STARLINK-33716","type":"PAYLOAD","l1":"1 63486U 25070AC  26204.07326240  .00021136  00000-0  77519-3 0  9994","l2":"2 63486  42.9989 215.0402 0000492 256.2800 103.7997 15.27588479 73688"},{"id":"63487","name":"STARLINK-33754","type":"PAYLOAD","l1":"1 63487U 25070AD  26204.42075448  .00009798  00000-0  36503-3 0  9993","l2":"2 63487  42.9996 213.3416 0000648 285.0692  75.0088 15.27585759 73731"},{"id":"63488","name":"POSAT 2","type":"PAYLOAD","l1":"1 63488U 25009DR  26204.95143235  .00016265  00000-0  90324-3 0  9992","l2":"2 63488  97.4836 279.3431 0005815  36.8570 323.3060 15.13788881 72203"},{"id":"63489","name":"HERMES-6","type":"PAYLOAD","l1":"1 63489U 25052BK  26204.33599771  .00004976  00000-0  21137-3 0  9995","l2":"2 63489  97.3961  96.3061 0007749  54.1534 306.0421 15.23495706 75337"},{"id":"63493","name":"STARLINK-33828","type":"PAYLOAD","l1":"1 63493U 25071A   26204.91668981  .00059266  00000-0  17535-2 0  9993","l2":"2 63493  53.1584 223.9102 0001200 100.6669 231.4169 15.34362123  5778"},{"id":"63494","name":"STARLINK-33819","type":"PAYLOAD","l1":"1 63494U 25071B   26204.33342792  .00032648  00000-0  97358-3 0  9996","l2":"2 63494  53.1581 226.6034 0001095  98.1280 261.9847 15.34387510 73562"},{"id":"63495","name":"STARLINK-33845","type":"PAYLOAD","l1":"1 63495U 25071C   26204.35862074  .00012291  00000-0  42645-3 0  9990","l2":"2 63495  53.1567 229.5988 0000886  87.8468 272.2634 15.30196300 73523"},{"id":"63496","name":"STARLINK-33829","type":"PAYLOAD","l1":"1 63496U 25071D   26204.07128429  .00025122  00000-0  81819-3 0  9992","l2":"2 63496  53.1566 230.6513 0000612  77.5696 282.5374 15.31715679 73449"},{"id":"63497","name":"STARLINK-33815","type":"PAYLOAD","l1":"1 63497U 25071E   26204.32760213  .00015974  00000-0  52496-3 0  9997","l2":"2 63497  53.1598 229.4065 0000534 281.6507  78.4435 15.31727099 73545"},{"id":"63498","name":"STARLINK-33833","type":"PAYLOAD","l1":"1 63498U 25071F   26204.46745536  .00024494  00000-0  79841-3 0  9994","l2":"2 63498  53.1584 228.8573 0001097  87.6326 272.4801 15.31702777 73567"},{"id":"63499","name":"STARLINK-33534","type":"PAYLOAD","l1":"1 63499U 25071G   26204.36019485  .00021445  00000-0  70064-3 0  9992","l2":"2 63499  53.1563 228.9012 0000992  71.8346 288.2763 15.31708293 73532"},{"id":"63500","name":"STARLINK-33838","type":"PAYLOAD","l1":"1 63500U 25071H   26204.36283885  .00020913  00000-0  71684-3 0  9990","l2":"2 63500  53.1557 229.6222 0001322  64.7872 295.3265 15.30172108 73335"},{"id":"63501","name":"STARLINK-33837","type":"PAYLOAD","l1":"1 63501U 25071J   26204.47213691  .00017585  00000-0  57693-3 0  9996","l2":"2 63501  53.1571 228.8888 0000778  74.1972 285.9115 15.31708487 73505"},{"id":"63502","name":"STARLINK-33818","type":"PAYLOAD","l1":"1 63502U 25071K   26204.49030426  .00013740  00000-0  47513-3 0  9991","l2":"2 63502  53.1567 228.9962 0000926  75.5942 284.5161 15.30202364 73566"},{"id":"63503","name":"STARLINK-33583","type":"PAYLOAD","l1":"1 63503U 25071L   26204.34969441  .00021374  00000-0  64203-3 0  9991","l2":"2 63503  53.1572 224.5487 0000811  91.6751 268.4344 15.34394963 73618"},{"id":"63504","name":"STARLINK-33811","type":"PAYLOAD","l1":"1 63504U 25071M   26204.44734374  .00010657  00000-0  32601-3 0  9997","l2":"2 63504  53.1581 229.4403 0001379  62.3431 297.7712 15.34407409 73491"},{"id":"63505","name":"STARLINK-33825","type":"PAYLOAD","l1":"1 63505U 25071N   26204.28486272  .00015622  00000-0  53825-3 0  9999","l2":"2 63505  53.1599 229.8599 0001568 125.3632 234.7515 15.30212747 73536"},{"id":"63506","name":"STARLINK-33792","type":"PAYLOAD","l1":"1 63506U 25071P   26204.35439941  .00007428  00000-0  26260-3 0  9997","l2":"2 63506  53.1568 229.5680 0000699  76.6038 283.5041 15.30205375 73493"},{"id":"63507","name":"STARLINK-33843","type":"PAYLOAD","l1":"1 63507U 25071Q   26204.34630653  .00019043  00000-0  62372-3 0  9990","l2":"2 63507  53.1574 229.4852 0000842  58.9808 301.1276 15.31706190 73522"},{"id":"63508","name":"STARLINK-33809","type":"PAYLOAD","l1":"1 63508U 25071R   26204.49240978  .00010950  00000-0  38131-3 0  9998","l2":"2 63508  53.1573 228.9741 0001110  97.1735 262.9392 15.30196780 73504"},{"id":"63509","name":"STARLINK-33678","type":"PAYLOAD","l1":"1 63509U 25071S   26204.35552727  .00013067  00000-0  43164-3 0  9996","l2":"2 63509  53.1571 228.8339 0001123  95.0786 265.0344 15.31733952 73287"},{"id":"63510","name":"STARLINK-33764","type":"PAYLOAD","l1":"1 63510U 25071T   26204.45364471  .00019488  00000-0  58627-3 0  9999","l2":"2 63510  53.1589 229.4444 0001918  89.0462 271.0760 15.34407371 73531"},{"id":"63511","name":"STARLINK-33804","type":"PAYLOAD","l1":"1 63511U 25071U   26204.32294654  .00015455  00000-0  50865-3 0  9997","l2":"2 63511  53.1576 229.3379 0001054  89.1164 270.9958 15.31707339 73176"},{"id":"63512","name":"STARLINK-33751","type":"PAYLOAD","l1":"1 63512U 25071V   26204.44411280  .00017895  00000-0  58685-3 0  9995","l2":"2 63512  53.1578 228.6762 0001307  74.3655 285.7491 15.31709280 73543"},{"id":"63513","name":"STARLINK-33750","type":"PAYLOAD","l1":"1 63513U 25071W   26204.50002631  .00020918  00000-0  68362-3 0  9992","l2":"2 63513  53.1562 228.3146 0001140  48.7427 311.3672 15.31714804 73553"},{"id":"63514","name":"STARLINK-33786","type":"PAYLOAD","l1":"1 63514U 25071X   26204.91668981  .00055102  00000-0  16322-2 0  9995","l2":"2 63514  53.1594 227.3416 0000175 174.6119 189.7801 15.34357171  5753"},{"id":"63515","name":"STARLINK-33796","type":"PAYLOAD","l1":"1 63515U 25071Y   26204.35650194  .00014275  00000-0  49314-3 0  9995","l2":"2 63515  53.1576 229.5418 0001173  98.5169 261.5965 15.30200631 73544"},{"id":"63516","name":"STARLINK-33785","type":"PAYLOAD","l1":"1 63516U 25071Z   26204.31827612  .00010425  00000-0  34714-3 0  9994","l2":"2 63516  53.1579 229.3100 0000803  78.5850 281.5242 15.31706666 73526"},{"id":"63517","name":"STARLINK-33803","type":"PAYLOAD","l1":"1 63517U 25071AA  26204.36388957  .00015260  00000-0  52633-3 0  9996","l2":"2 63517  53.1559 229.5828 0000892  86.5836 273.5266 15.30196653 73542"},{"id":"63518","name":"STARLINK-33807","type":"PAYLOAD","l1":"1 63518U 25071AB  26204.39225242  .00016244  00000-0  49117-3 0  9993","l2":"2 63518  53.1584 226.2167 0000640  73.7927 286.3146 15.34379255 73590"},{"id":"63519","name":"STARLINK-33787","type":"PAYLOAD","l1":"1 63519U 25071AC  26204.91668981  .00050837  00000-0  15073-2 0  9992","l2":"2 63519  53.1585 229.2307 0001019  74.6604  54.4514 15.34364346  5823"},{"id":"63524","name":"TJS-17","type":"PAYLOAD","l1":"1 63524U 25073A   26203.50765978 -.00000067  00000-0  00000+0 0  9990","l2":"2 63524   1.1528  82.3957 0001022 323.4327 241.6719  1.00271970  4643"},{"id":"63548","name":"STARLINK-11669","type":"PAYLOAD","l1":"1 63548U 25075A   26204.31378809  .00171019  00000-0  13072-2 0  9992","l2":"2 63548  43.0009  55.8730 0001561 261.5009  98.5682 15.70874000 74582"},{"id":"63549","name":"STARLINK-11665","type":"PAYLOAD","l1":"1 63549U 25075B   26203.95883560  .00285552  00000-0  21512-2 0  9993","l2":"2 63549  43.0009  58.3838 0001698 296.0782  63.9910 15.70863076 74527"},{"id":"63550","name":"STARLINK-11667","type":"PAYLOAD","l1":"1 63550U 25075C   26204.93381844  .00260010  00000-0  19491-2 0  9997","l2":"2 63550  43.0002  52.8067 0002891 281.7079  78.3464 15.71057129 74676"},{"id":"63551","name":"STARLINK-11695","type":"PAYLOAD","l1":"1 63551U 25075D   26204.88694191  .00194384  00000-0  14827-2 0  9992","l2":"2 63551  43.0005  52.4277 0002415 264.0933  95.9660 15.70848009 74671"},{"id":"63552","name":"STARLINK-11685","type":"PAYLOAD","l1":"1 63552U 25075E   26204.96022028  .00169314  00000-0  12874-2 0  9991","l2":"2 63552  43.0018  52.1227 0006008 254.4399 105.5805 15.70986045 74682"},{"id":"63553","name":"STARLINK-11697","type":"PAYLOAD","l1":"1 63553U 25075F   26204.96553985  .00269759  00000-0  20176-2 0  9991","l2":"2 63553  43.0022  52.1637 0003954 270.2765  89.7650 15.71079576 74687"},{"id":"63554","name":"STARLINK-11680","type":"PAYLOAD","l1":"1 63554U 25075G   26204.86494599  .00149693  00000-0  11478-2 0  9995","l2":"2 63554  42.9998  53.1445 0001673 254.5184 105.5499 15.70869370 74666"},{"id":"63556","name":"STARLINK-11626","type":"PAYLOAD","l1":"1 63556U 25075J   26204.88084879  .00180729  00000-0  13761-2 0  9997","l2":"2 63556  43.0017  53.2701 0002942 252.0989 107.9558 15.70932014 74662"},{"id":"63557","name":"STARLINK-11668","type":"PAYLOAD","l1":"1 63557U 25075K   26204.93912575  .00166293  00000-0  12654-2 0  9997","l2":"2 63557  43.0001  52.8430 0002776 270.1440  89.9109 15.70994161 74671"},{"id":"63558","name":"STARLINK-11657","type":"PAYLOAD","l1":"1 63558U 25075L   26204.85961561  .00154684  00000-0  11865-2 0  9992","l2":"2 63558  43.0018  53.0994 0002065 289.3266  70.7379 15.70842453 74669"},{"id":"63559","name":"STARLINK-11606","type":"PAYLOAD","l1":"1 63559U 25075M   26204.89134350  .00357532  00000-0  26748-2 0  9998","l2":"2 63559  43.0012  52.4569 0002004 237.5723 122.4951 15.70811980 74674"},{"id":"63560","name":"STARLINK-11592","type":"PAYLOAD","l1":"1 63560U 25075N   26204.97085330  .00133304  00000-0  10242-2 0  9993","l2":"2 63560  43.0038  52.2057 0002631 295.7485  64.3111 15.70875078 74682"},{"id":"63561","name":"STARLINK-32953","type":"PAYLOAD","l1":"1 63561U 25075P   26204.35529676  .00022428  00000-0  82159-3 0  9993","l2":"2 63561  42.9978 224.6407 0001256 275.0461  85.0247 15.27598037 72671"},{"id":"63562","name":"STARLINK-32951","type":"PAYLOAD","l1":"1 63562U 25075Q   26204.35143139  .00015504  00000-0  57194-3 0  9998","l2":"2 63562  42.9989 224.5862 0001293 274.8169  85.2535 15.27568815 72685"},{"id":"63563","name":"STARLINK-32958","type":"PAYLOAD","l1":"1 63563U 25075R   26204.34115966  .00021540  00000-0  79015-3 0  9998","l2":"2 63563  42.9975 224.5350 0001217 266.6478  93.4234 15.27572611 72676"}]}